CCSDS_OMM_VERS = 2.0
CREATION_DATE  = 
ORIGINATOR     = 

OBJECT_NAME    = UNKNOWN
OBJECT_ID      = 
CENTER_NAME    = EARTH
REF_FRAME      = TEME
TIME_SYSTEM    = UTC
MEAN_ELEMENT_THEORY = SGP/SGP4

EPOCH          = 2026-05-22T04:27:43.330752
MEAN_MOTION    = 12.81098697
ECCENTRICITY   = .0274971
INCLINATION    = 82.5344
RA_OF_ASC_NODE = 297.2722
ARG_OF_PERICENTER = 183.1363
MEAN_ANOMALY   = 176.8027

EPHEMERIS_TYPE = 0
CLASSIFICATION_TYPE = U
NORAD_CAT_ID   = 270379
ELEMENT_SET_NO = 999
REV_AT_EPOCH   = 6419
BSTAR          = .28992429E-1
MEAN_MOTION_DOT = .787E-4
MEAN_MOTION_DDOT = 0

CCSDS_OMM_VERS = 2.0
CREATION_DATE  = 
ORIGINATOR     = 

OBJECT_NAME    = UNKNOWN
OBJECT_ID      = 
CENTER_NAME    = EARTH
REF_FRAME      = TEME
TIME_SYSTEM    = UTC
MEAN_ELEMENT_THEORY = SGP/SGP4

EPOCH          = 2026-05-22T15:34:38.200800
MEAN_MOTION    = 12.63338472
ECCENTRICITY   = .01887334
INCLINATION    = 82.3463
RA_OF_ASC_NODE = 288.8787
ARG_OF_PERICENTER = 199.8355
MEAN_ANOMALY   = 159.5329

EPHEMERIS_TYPE = 0
CLASSIFICATION_TYPE = U
NORAD_CAT_ID   = 270380
ELEMENT_SET_NO = 999
REV_AT_EPOCH   = 15564
BSTAR          = .10602742E-2
MEAN_MOTION_DOT = .216E-5
MEAN_MOTION_DDOT = 0

CCSDS_OMM_VERS = 2.0
CREATION_DATE  = 
ORIGINATOR     = 

OBJECT_NAME    = UNKNOWN
OBJECT_ID      = 
CENTER_NAME    = EARTH
REF_FRAME      = TEME
TIME_SYSTEM    = UTC
MEAN_ELEMENT_THEORY = SGP/SGP4

EPOCH          = 2026-05-22T06:08:22.742592
MEAN_MOTION    = 14.12825582
ECCENTRICITY   = .00680436
INCLINATION    = 98.8049
RA_OF_ASC_NODE = 137.5897
ARG_OF_PERICENTER = 73.5069
MEAN_ANOMALY   = 287.3566

EPHEMERIS_TYPE = 0
CLASSIFICATION_TYPE = U
NORAD_CAT_ID   = 270382
ELEMENT_SET_NO = 999
REV_AT_EPOCH   = 17025
BSTAR          = .45087477E-3
MEAN_MOTION_DOT = .814E-5
MEAN_MOTION_DDOT = 0

CCSDS_OMM_VERS = 2.0
CREATION_DATE  = 
ORIGINATOR     = 

OBJECT_NAME    = UNKNOWN
OBJECT_ID      = 
CENTER_NAME    = EARTH
REF_FRAME      = TEME
TIME_SYSTEM    = UTC
MEAN_ELEMENT_THEORY = SGP/SGP4

EPOCH          = 2026-05-19T23:12:32.713056
MEAN_MOTION    = 12.21672633
ECCENTRICITY   = .00721329
INCLINATION    = 82.4167
RA_OF_ASC_NODE = 237.9672
ARG_OF_PERICENTER = 327.3667
MEAN_ANOMALY   = 32.2953

EPHEMERIS_TYPE = 0
CLASSIFICATION_TYPE = U
NORAD_CAT_ID   = 270383
ELEMENT_SET_NO = 999
REV_AT_EPOCH   = 14501
BSTAR          = -.13352826E-1
MEAN_MOTION_DOT = -.1412E-4
MEAN_MOTION_DDOT = 0

CCSDS_OMM_VERS = 2.0
CREATION_DATE  = 
ORIGINATOR     = 

OBJECT_NAME    = UNKNOWN
OBJECT_ID      = 
CENTER_NAME    = EARTH
REF_FRAME      = TEME
TIME_SYSTEM    = UTC
MEAN_ELEMENT_THEORY = SGP/SGP4

EPOCH          = 2026-05-20T17:22:58.767456
MEAN_MOTION    = 12.63047855
ECCENTRICITY   = .01799805
INCLINATION    = 82.4756
RA_OF_ASC_NODE = 152.1105
ARG_OF_PERICENTER = 153.1550
MEAN_ANOMALY   = 207.8995

EPHEMERIS_TYPE = 0
CLASSIFICATION_TYPE = U
NORAD_CAT_ID   = 270384
ELEMENT_SET_NO = 999
REV_AT_EPOCH   = 14956
BSTAR          = .16729118E-1
MEAN_MOTION_DOT = .323E-4
MEAN_MOTION_DDOT = 0

CCSDS_OMM_VERS = 2.0
CREATION_DATE  = 
ORIGINATOR     = 

OBJECT_NAME    = UNKNOWN
OBJECT_ID      = 
CENTER_NAME    = EARTH
REF_FRAME      = TEME
TIME_SYSTEM    = UTC
MEAN_ELEMENT_THEORY = SGP/SGP4

EPOCH          = 2026-05-19T09:35:35.216160
MEAN_MOTION    = 8.88802898
ECCENTRICITY   = .27970408
INCLINATION    = 84.7524
RA_OF_ASC_NODE = 15.1021
ARG_OF_PERICENTER = 106.8002
MEAN_ANOMALY   = 285.5457

EPHEMERIS_TYPE = 0
CLASSIFICATION_TYPE = U
NORAD_CAT_ID   = 270385
ELEMENT_SET_NO = 999
REV_AT_EPOCH   = 10331
BSTAR          = .23751381E-1
MEAN_MOTION_DOT = .8618E-4
MEAN_MOTION_DDOT = 0

CCSDS_OMM_VERS = 2.0
CREATION_DATE  = 
ORIGINATOR     = 

OBJECT_NAME    = UNKNOWN
OBJECT_ID      = 
CENTER_NAME    = EARTH
REF_FRAME      = TEME
TIME_SYSTEM    = UTC
MEAN_ELEMENT_THEORY = SGP/SGP4

EPOCH          = 2026-05-22T14:06:20.266848
MEAN_MOTION    = 13.85264812
ECCENTRICITY   = .01618514
INCLINATION    = 98.9030
RA_OF_ASC_NODE = 92.2165
ARG_OF_PERICENTER = 183.8185
MEAN_ANOMALY   = 176.1748

EPHEMERIS_TYPE = 0
CLASSIFICATION_TYPE = U
NORAD_CAT_ID   = 270386
ELEMENT_SET_NO = 999
REV_AT_EPOCH   = 16001
BSTAR          = .16925719E-3
MEAN_MOTION_DOT = .172E-5
MEAN_MOTION_DDOT = 0

CCSDS_OMM_VERS = 2.0
CREATION_DATE  = 
ORIGINATOR     = 

OBJECT_NAME    = UNKNOWN
OBJECT_ID      = 
CENTER_NAME    = EARTH
REF_FRAME      = TEME
TIME_SYSTEM    = UTC
MEAN_ELEMENT_THEORY = SGP/SGP4

EPOCH          = 2026-05-21T10:42:39.691008
MEAN_MOTION    = 14.20312837
ECCENTRICITY   = .00100521
INCLINATION    = 81.2084
RA_OF_ASC_NODE = 314.0508
ARG_OF_PERICENTER = 26.5141
MEAN_ANOMALY   = 333.6548

EPHEMERIS_TYPE = 0
CLASSIFICATION_TYPE = U
NORAD_CAT_ID   = 270387
ELEMENT_SET_NO = 999
REV_AT_EPOCH   = 15625
BSTAR          = .18552976E-2
MEAN_MOTION_DOT = .3982E-4
MEAN_MOTION_DDOT = 0

CCSDS_OMM_VERS = 2.0
CREATION_DATE  = 
ORIGINATOR     = 

OBJECT_NAME    = UNKNOWN
OBJECT_ID      = 
CENTER_NAME    = EARTH
REF_FRAME      = TEME
TIME_SYSTEM    = UTC
MEAN_ELEMENT_THEORY = SGP/SGP4

EPOCH          = 2026-05-14T12:03:21.985056
MEAN_MOTION    = 13.19747434
ECCENTRICITY   = .02609403
INCLINATION    = 82.2014
RA_OF_ASC_NODE = 211.8902
ARG_OF_PERICENTER = 320.7765
MEAN_ANOMALY   = 37.4699

EPHEMERIS_TYPE = 0
CLASSIFICATION_TYPE = U
NORAD_CAT_ID   = 270388
ELEMENT_SET_NO = 999
REV_AT_EPOCH   = 6303
BSTAR          = .16279756E-1
MEAN_MOTION_DOT = .7798E-4
MEAN_MOTION_DDOT = 0

CCSDS_OMM_VERS = 2.0
CREATION_DATE  = 
ORIGINATOR     = 

OBJECT_NAME    = UNKNOWN
OBJECT_ID      = 
CENTER_NAME    = EARTH
REF_FRAME      = TEME
TIME_SYSTEM    = UTC
MEAN_ELEMENT_THEORY = SGP/SGP4

EPOCH          = 2026-05-19T17:33:58.789152
MEAN_MOTION    = 12.78210880
ECCENTRICITY   = .0194976
INCLINATION    = 82.6170
RA_OF_ASC_NODE = 300.2147
ARG_OF_PERICENTER = 113.2291
MEAN_ANOMALY   = 248.9472

EPHEMERIS_TYPE = 0
CLASSIFICATION_TYPE = U
NORAD_CAT_ID   = 270389
ELEMENT_SET_NO = 999
REV_AT_EPOCH   = 13604
BSTAR          = .68843226E-2
MEAN_MOTION_DOT = .1666E-4
MEAN_MOTION_DDOT = 0

CCSDS_OMM_VERS = 2.0
CREATION_DATE  = 
ORIGINATOR     = 

OBJECT_NAME    = UNKNOWN
OBJECT_ID      = 
CENTER_NAME    = EARTH
REF_FRAME      = TEME
TIME_SYSTEM    = UTC
MEAN_ELEMENT_THEORY = SGP/SGP4

EPOCH          = 2026-05-22T10:42:49.159584
MEAN_MOTION    = 13.94608329
ECCENTRICITY   = .00227994
INCLINATION    = 82.5152
RA_OF_ASC_NODE = 40.1134
ARG_OF_PERICENTER = 103.1781
MEAN_ANOMALY   = 257.1931

EPHEMERIS_TYPE = 0
CLASSIFICATION_TYPE = U
NORAD_CAT_ID   = 270390
ELEMENT_SET_NO = 999
REV_AT_EPOCH   = 32853
BSTAR          = .86743587E-3
MEAN_MOTION_DOT = .1176E-4
MEAN_MOTION_DDOT = 0

CCSDS_OMM_VERS = 2.0
CREATION_DATE  = 
ORIGINATOR     = 

OBJECT_NAME    = UNKNOWN
OBJECT_ID      = 
CENTER_NAME    = EARTH
REF_FRAME      = TEME
TIME_SYSTEM    = UTC
MEAN_ELEMENT_THEORY = SGP/SGP4

EPOCH          = 2026-05-03T15:25:17.752512
MEAN_MOTION    = 13.95210482
ECCENTRICITY   = .01261717
INCLINATION    = 98.8730
RA_OF_ASC_NODE = 90.6675
ARG_OF_PERICENTER = 205.0621
MEAN_ANOMALY   = 154.4383

EPHEMERIS_TYPE = 0
CLASSIFICATION_TYPE = U
NORAD_CAT_ID   = 270391
ELEMENT_SET_NO = 999
REV_AT_EPOCH   = 17514
BSTAR          = .2163597E-3
MEAN_MOTION_DOT = .27E-5
MEAN_MOTION_DDOT = 0

CCSDS_OMM_VERS = 2.0
CREATION_DATE  = 
ORIGINATOR     = 

OBJECT_NAME    = UNKNOWN
OBJECT_ID      = 
CENTER_NAME    = EARTH
REF_FRAME      = TEME
TIME_SYSTEM    = UTC
MEAN_ELEMENT_THEORY = SGP/SGP4

EPOCH          = 2026-05-18T17:09:25.688160
MEAN_MOTION    = 14.11968056
ECCENTRICITY   = .00424143
INCLINATION    = 98.8318
RA_OF_ASC_NODE = 141.2256
ARG_OF_PERICENTER = 59.9438
MEAN_ANOMALY   = 300.5931

EPHEMERIS_TYPE = 0
CLASSIFICATION_TYPE = U
NORAD_CAT_ID   = 270392
ELEMENT_SET_NO = 999
REV_AT_EPOCH   = 17139
BSTAR          = .23286131E-3
MEAN_MOTION_DOT = .386E-5
MEAN_MOTION_DDOT = 0

CCSDS_OMM_VERS = 2.0
CREATION_DATE  = 
ORIGINATOR     = 

OBJECT_NAME    = UNKNOWN
OBJECT_ID      = 
CENTER_NAME    = EARTH
REF_FRAME      = TEME
TIME_SYSTEM    = UTC
MEAN_ELEMENT_THEORY = SGP/SGP4

EPOCH          = 2026-05-17T06:17:04.300512
MEAN_MOTION    = 14.17462098
ECCENTRICITY   = .00164832
INCLINATION    = 81.2249
RA_OF_ASC_NODE = 322.7985
ARG_OF_PERICENTER = 322.2328
MEAN_ANOMALY   = 37.7689

EPHEMERIS_TYPE = 0
CLASSIFICATION_TYPE = U
NORAD_CAT_ID   = 270393
ELEMENT_SET_NO = 999
REV_AT_EPOCH   = 15431
BSTAR          = .44212306E-3
MEAN_MOTION_DOT = .909E-5
MEAN_MOTION_DDOT = 0

CCSDS_OMM_VERS = 2.0
CREATION_DATE  = 
ORIGINATOR     = 

OBJECT_NAME    = UNKNOWN
OBJECT_ID      = 
CENTER_NAME    = EARTH
REF_FRAME      = TEME
TIME_SYSTEM    = UTC
MEAN_ELEMENT_THEORY = SGP/SGP4

EPOCH          = 2026-05-21T19:42:06.589440
MEAN_MOTION    = 14.13539995
ECCENTRICITY   = .00695199
INCLINATION    = 89.0392
RA_OF_ASC_NODE = 281.5218
ARG_OF_PERICENTER = 288.3303
MEAN_ANOMALY   = 71.0330

EPHEMERIS_TYPE = 0
CLASSIFICATION_TYPE = U
NORAD_CAT_ID   = 270394
ELEMENT_SET_NO = 999
REV_AT_EPOCH   = 9155
BSTAR          = .11621712E-3
MEAN_MOTION_DOT = .237E-5
MEAN_MOTION_DDOT = 0

CCSDS_OMM_VERS = 2.0
CREATION_DATE  = 
ORIGINATOR     = 

OBJECT_NAME    = UNKNOWN
OBJECT_ID      = 
CENTER_NAME    = EARTH
REF_FRAME      = TEME
TIME_SYSTEM    = UTC
MEAN_ELEMENT_THEORY = SGP/SGP4

EPOCH          = 2026-05-21T07:15:08.972352
MEAN_MOTION    = 14.51497905
ECCENTRICITY   = .0079409
INCLINATION    = 98.7732
RA_OF_ASC_NODE = 162.5997
ARG_OF_PERICENTER = 148.2669
MEAN_ANOMALY   = 212.3346

EPHEMERIS_TYPE = 0
CLASSIFICATION_TYPE = U
NORAD_CAT_ID   = 270395
ELEMENT_SET_NO = 999
REV_AT_EPOCH   = 10804
BSTAR          = .51861677E-2
MEAN_MOTION_DOT = .21609E-3
MEAN_MOTION_DDOT = 0

